start=new Date('2023-03-09T00:00:00.000Z').valueOf();
sats=[{"EPOCH":"2023-03-08T21:07:51.960000","NORAD_CAT_ID":"46715","MEAN_ELEMENT_THEORY":"SGP4","OBJECT_TYPE":"PAYLOAD","ECCENTRICITY":"0.00013810","ARG_OF_PERICENTER":"86.8877","REV_AT_EPOCH":"13181","CLASSIFICATION_TYPE":"U","INCLINATION":"53.0523","TLE_LINE1":"1 46715U 20073AX  23067.88046250  .00021456  00000-0  14545-2 0  9995","MEAN_ANOMALY":"273.2270","MEAN_MOTION_DOT":"0.00021456","OBJECT_NAME":"STARLINK-1817","TIME_SYSTEM":"UTC","RCS_SIZE":"LARGE","ELEMENT_SET_NO":"999","OBJECT_ID":"2020-073AX","COUNTRY_CODE":"US","EPHEMERIS_TYPE":"0","REF_FRAME":"TEME","MEAN_MOTION":"15.06411369","TLE_LINE2":"2 46715  53.0523 125.3883 0001381  86.8877 273.2270 15.06411369131813","CENTER_NAME":"EARTH","SEMIMAJOR_AXIS":"6925.314","BSTAR":"0.00145450000000","PERIAPSIS":"546.222","RA_OF_ASC_NODE":"125.3883","GP_ID":"227718301","APOAPSIS":"548.135","PERIOD":"95.591","MEAN_MOTION_DDOT":"0.0000000000000","LAUNCH_DATE":"2020-10-18","FILE":"3855077","DECAY_DATE":null,"SITE":"AFETR"},{"REV_AT_EPOCH":"13160","CLASSIFICATION_TYPE":"U","INCLINATION":"53.0530","TLE_LINE1":"1 46716U 20073AY  23067.89566127  .00006768  00000-0  47265-3 0  9992","ARG_OF_PERICENTER":"90.0236","ECCENTRICITY":"0.00013700","NORAD_CAT_ID":"46716","MEAN_ELEMENT_THEORY":"SGP4","OBJECT_TYPE":"PAYLOAD","EPOCH":"2023-03-08T21:29:45.133728","EPHEMERIS_TYPE":"0","REF_FRAME":"TEME","MEAN_MOTION":"15.06412229","OBJECT_ID":"2020-073AY","COUNTRY_CODE":"US","TIME_SYSTEM":"UTC","RCS_SIZE":"LARGE","ELEMENT_SET_NO":"999","MEAN_ANOMALY":"270.0910","MEAN_MOTION_DOT":"0.00006768","OBJECT_NAME":"STARLINK-1818","SEMIMAJOR_AXIS":"6925.311","PERIAPSIS":"546.227","BSTAR":"0.00047265000000","GP_ID":"227719050","RA_OF_ASC_NODE":"140.3195","APOAPSIS":"548.125","CENTER_NAME":"EARTH","TLE_LINE2":"2 46716  53.0530 140.3195 0001370  90.0236 270.0910 15.06412229131608","SITE":"AFETR","LAUNCH_DATE":"2020-10-18","FILE":"3855077","DECAY_DATE":null,"MEAN_MOTION_DDOT":"0.0000000000000","PERIOD":"95.591"},{"APOAPSIS":"548.394","RA_OF_ASC_NODE":"126.7912","GP_ID":"227719296","PERIAPSIS":"546.222","BSTAR":"0.00076887000000","SEMIMAJOR_AXIS":"6925.443","TLE_LINE2":"2 46717  53.0515 126.7912 0001568 104.6035 255.5128 15.06369056131760","CENTER_NAME":"EARTH","SITE":"AFETR","MEAN_MOTION_DDOT":"0.0000000000000","PERIOD":"95.594","DECAY_DATE":null,"FILE":"3855077","LAUNCH_DATE":"2020-10-18","ECCENTRICITY":"0.00015680","ARG_OF_PERICENTER":"104.6035","TLE_LINE1":"1 46717U 20073AZ  23067.56718707  .00011180  00000-0  76887-3 0  9996","INCLINATION":"53.0515","CLASSIFICATION_TYPE":"U","REV_AT_EPOCH":"13176","EPOCH":"2023-03-08T13:36:44.962848","OBJECT_TYPE":"PAYLOAD","MEAN_ELEMENT_THEORY":"SGP4","NORAD_CAT_ID":"46717","COUNTRY_CODE":"US","OBJECT_ID":"2020-073AZ","MEAN_MOTION":"15.06369056","REF_FRAME":"TEME","EPHEMERIS_TYPE":"0","OBJECT_NAME":"STARLINK-1820","MEAN_MOTION_DOT":"0.00011180","MEAN_ANOMALY":"255.5128","ELEMENT_SET_NO":"999","RCS_SIZE":"LARGE","TIME_SYSTEM":"UTC"},{"OBJECT_TYPE":"PAYLOAD","NORAD_CAT_ID":"46718","MEAN_ELEMENT_THEORY":"SGP4","EPOCH":"2023-03-08T09:47:46.980096","INCLINATION":"53.0528","TLE_LINE1":"1 46718U 20073BA  23067.40818264  .00022530  00000-0  15269-2 0  9996","CLASSIFICATION_TYPE":"U","REV_AT_EPOCH":"13153","ECCENTRICITY":"0.00016880","ARG_OF_PERICENTER":"69.6338","ELEMENT_SET_NO":"999","TIME_SYSTEM":"UTC","RCS_SIZE":"LARGE","MEAN_MOTION_DOT":"0.00022530","OBJECT_NAME":"STARLINK-1821","MEAN_ANOMALY":"290.4832","MEAN_MOTION":"15.06392177","EPHEMERIS_TYPE":"0","REF_FRAME":"TEME","COUNTRY_CODE":"US","OBJECT_ID":"2020-073BA","CENTER_NAME":"EARTH","TLE_LINE2":"2 46718  53.0528 142.4983 0001688  69.6338 290.4832 15.06392177131532","GP_ID":"227718051","RA_OF_ASC_NODE":"142.4983","APOAPSIS":"548.407","SEMIMAJOR_AXIS":"6925.373","PERIAPSIS":"546.069","BSTAR":"0.00152690000000","DECAY_DATE":null,"LAUNCH_DATE":"2020-10-18","FILE":"3855077","MEAN_MOTION_DDOT":"0.0000000000000","PERIOD":"95.593","SITE":"AFETR"},{"SITE":"AFETR","MEAN_MOTION_DDOT":"0.0000000000000","PERIOD":"95.592","DECAY_DATE":null,"LAUNCH_DATE":"2020-10-18","FILE":"3855077","GP_ID":"227718802","RA_OF_ASC_NODE":"105.7918","APOAPSIS":"547.753","SEMIMAJOR_AXIS":"6925.342","BSTAR":"0.00105800000000","PERIAPSIS":"546.661","TLE_LINE2":"2 46719  53.0523 105.7918 0000788 112.8654 247.2418 15.06402116132086","CENTER_NAME":"EARTH","COUNTRY_CODE":"US","OBJECT_ID":"2020-073BB","MEAN_MOTION":"15.06402116","EPHEMERIS_TYPE":"0","REF_FRAME":"TEME","MEAN_MOTION_DOT":"0.00015513","OBJECT_NAME":"STARLINK-1822","MEAN_ANOMALY":"247.2418","ELEMENT_SET_NO":"999","TIME_SYSTEM":"UTC","RCS_SIZE":"LARGE","ARG_OF_PERICENTER":"112.8654","ECCENTRICITY":"0.00007880","INCLINATION":"53.0523","TLE_LINE1":"1 46719U 20073BB  23067.79015641  .00015513  00000-0  10580-2 0  9991","REV_AT_EPOCH":"13208","CLASSIFICATION_TYPE":"U","EPOCH":"2023-03-08T18:57:49.513824","OBJECT_TYPE":"PAYLOAD","NORAD_CAT_ID":"46719","MEAN_ELEMENT_THEORY":"SGP4"},{"SITE":"AFETR","FILE":"3855077","LAUNCH_DATE":"2020-10-18","DECAY_DATE":null,"PERIOD":"95.595","MEAN_MOTION_DDOT":"0.0000000000000","BSTAR":"0.00186470000000","PERIAPSIS":"545.873","SEMIMAJOR_AXIS":"6925.497","APOAPSIS":"548.851","RA_OF_ASC_NODE":"140.3026","GP_ID":"227719550","CENTER_NAME":"EARTH","TLE_LINE2":"2 46722  53.0521 140.3026 0002150  49.6297 310.4880 15.06351585131604","REF_FRAME":"TEME","EPHEMERIS_TYPE":"0","MEAN_MOTION":"15.06351585","OBJECT_ID":"2020-073BE","COUNTRY_CODE":"US","RCS_SIZE":"LARGE","TIME_SYSTEM":"UTC","ELEMENT_SET_NO":"999","MEAN_ANOMALY":"310.4880","MEAN_MOTION_DOT":"0.00027566","OBJECT_NAME":"STARLINK-1825","CLASSIFICATION_TYPE":"U","REV_AT_EPOCH":"13160","TLE_LINE1":"1 46722U 20073BE  23067.89936339  .00027566  00000-0  18647-2 0  9995","INCLINATION":"53.0521","ECCENTRICITY":"0.00021500","ARG_OF_PERICENTER":"49.6297","MEAN_ELEMENT_THEORY":"SGP4","NORAD_CAT_ID":"46722","OBJECT_TYPE":"PAYLOAD","EPOCH":"2023-03-08T21:35:04.996896"},{"SITE":"AFETR","MEAN_MOTION_DDOT":"0.0000000000000","PERIOD":"95.591","FILE":"3855077","LAUNCH_DATE":"2020-10-18","DECAY_DATE":null,"PERIAPSIS":"545.959","BSTAR":"0.00132090000000","SEMIMAJOR_AXIS":"6925.289","APOAPSIS":"548.349","GP_ID":"227719797","RA_OF_ASC_NODE":"101.9713","TLE_LINE2":"2 46723  53.0514 101.9713 0001726 111.6432 248.4741 15.06419448132118","CENTER_NAME":"EARTH","OBJECT_ID":"2020-073BF","COUNTRY_CODE":"US","REF_FRAME":"TEME","EPHEMERIS_TYPE":"0","MEAN_MOTION":"15.06419448","MEAN_ANOMALY":"248.4741","OBJECT_NAME":"STARLINK-1826","MEAN_MOTION_DOT":"0.00019458","RCS_SIZE":"LARGE","TIME_SYSTEM":"UTC","ELEMENT_SET_NO":"999","ECCENTRICITY":"0.00017260","ARG_OF_PERICENTER":"111.6432","REV_AT_EPOCH":"13211","CLASSIFICATION_TYPE":"U","TLE_LINE1":"1 46723U 20073BF  23067.52707220  .00019458  00000-0  13209-2 0  9991","INCLINATION":"53.0514","EPOCH":"2023-03-08T12:38:59.038080","MEAN_ELEMENT_THEORY":"SGP4","NORAD_CAT_ID":"46723","OBJECT_TYPE":"PAYLOAD"},{"DECAY_DATE":null,"FILE":"3855077","LAUNCH_DATE":"2020-10-18","PERIOD":"95.592","MEAN_MOTION_DDOT":"0.0000000000000","SITE":"AFETR","CENTER_NAME":"EARTH","TLE_LINE2":"2 46725  53.0506 141.6575 0001928  77.0238 283.0967 15.06402275131564","APOAPSIS":"548.542","RA_OF_ASC_NODE":"141.6575","GP_ID":"227718552","BSTAR":"0.00046686000000","PERIAPSIS":"545.871","SEMIMAJOR_AXIS":"6925.342","ELEMENT_SET_NO":"999","RCS_SIZE":"LARGE","TIME_SYSTEM":"UTC","OBJECT_NAME":"STARLINK-1828","MEAN_MOTION_DOT":"0.00006679","MEAN_ANOMALY":"283.0967","MEAN_MOTION":"15.06402275","REF_FRAME":"TEME","EPHEMERIS_TYPE":"0","COUNTRY_CODE":"US","OBJECT_ID":"2020-073BH","OBJECT_TYPE":"PAYLOAD","MEAN_ELEMENT_THEORY":"SGP4","NORAD_CAT_ID":"46725","EPOCH":"2023-03-08T14:19:50.215872","TLE_LINE1":"1 46725U 20073BH  23067.59710898  .00006679  00000-0  46686-3 0  9992","INCLINATION":"53.0506","CLASSIFICATION_TYPE":"U","REV_AT_EPOCH":"13156","ARG_OF_PERICENTER":"77.0238","ECCENTRICITY":"0.00019280"},{"TLE_LINE1":"1 46726U 20073BJ  23067.88689280  .00034022  00000-0  22909-2 0  9999","INCLINATION":"53.0515","CLASSIFICATION_TYPE":"U","REV_AT_EPOCH":"13181","ECCENTRICITY":"0.00017330","ARG_OF_PERICENTER":"81.7694","OBJECT_TYPE":"PAYLOAD","MEAN_ELEMENT_THEORY":"SGP4","NORAD_CAT_ID":"46726","EPOCH":"2023-03-08T21:17:07.537920","MEAN_MOTION":"15.06416495","REF_FRAME":"TEME","EPHEMERIS_TYPE":"0","COUNTRY_CODE":"US","OBJECT_ID":"2020-073BJ","ELEMENT_SET_NO":"999","RCS_SIZE":"LARGE","TIME_SYSTEM":"UTC","OBJECT_NAME":"STARLINK-1829","MEAN_MOTION_DOT":"0.00034022","MEAN_ANOMALY":"278.3491","APOAPSIS":"548.363","RA_OF_ASC_NODE":"125.3490","GP_ID":"227718302","BSTAR":"0.00229090000000","PERIAPSIS":"545.963","SEMIMAJOR_AXIS":"6925.298","CENTER_NAME":"EARTH","TLE_LINE2":"2 46726  53.0515 125.3490 0001733  81.7694 278.3491 15.06416495131818","SITE":"AFETR","DECAY_DATE":null,"FILE":"3855077","LAUNCH_DATE":"2020-10-18","MEAN_MOTION_DDOT":"0.0000000000000","PERIOD":"95.591"},{"FILE":"3855077","LAUNCH_DATE":"2020-10-18","DECAY_DATE":null,"PERIOD":"95.592","MEAN_MOTION_DDOT":"0.0000000000000","SITE":"AFETR","CENTER_NAME":"EARTH","TLE_LINE2":"2 46727  53.0515 100.8454 0001775  87.2345 272.8847 15.06394464132150","PERIAPSIS":"546.001","BSTAR":"0.00052515000000","SEMIMAJOR_AXIS":"6925.366","APOAPSIS":"548.460","GP_ID":"227719051","RA_OF_ASC_NODE":"100.8454","RCS_SIZE":"LARGE","TIME_SYSTEM":"UTC","ELEMENT_SET_NO":"999","MEAN_ANOMALY":"272.8847","OBJECT_NAME":"STARLINK-1830","MEAN_MOTION_DOT":"0.00007548","REF_FRAME":"TEME","EPHEMERIS_TYPE":"0","MEAN_MOTION":"15.06394464","OBJECT_ID":"2020-073BK","COUNTRY_CODE":"US","MEAN_ELEMENT_THEORY":"SGP4","NORAD_CAT_ID":"46727","OBJECT_TYPE":"PAYLOAD","EPOCH":"2023-03-08T18:39:55.187712","CLASSIFICATION_TYPE":"U","REV_AT_EPOCH":"13215","TLE_LINE1":"1 46727U 20073BK  23067.77772208  .00007548  00000-0  52515-3 0  9991","INCLINATION":"53.0515","ARG_OF_PERICENTER":"87.2345","ECCENTRICITY":"0.00017750"}];
